var globe_data=[{"DIVISION":"صحنايا وما حولها","NAME":"صيدلية اليمام - يمام ضاهر","REGION_TERR":"ريف دمشق","CITY":"صحنايا","STREET":"شارع المتنبي","BUILDING":"","TEL":"116772099","PROVIDER_TYPE":"صيدلية","SPECIALITY":""},
{"DIVISION":"النبك وما حولها","NAME":"صيدلية حسيبة حداد","REGION_TERR":"ريف دمشق","CITY":"يبرود","STREET":"الشارع الرئيسي","BUILDING":"السرايا القديمة","TEL":"117813953","PROVIDER_TYPE":"صيدلية","SPECIALITY":""},
{"DIVISION":"المجتهد وما حولها","NAME":"صيدلية اسماعيل خضر","REGION_TERR":"دمشق","CITY":"باب الجابية","STREET":"مقابل دخلة الدرويشية","BUILDING":"مواجه دخلة الحديقة","TEL":"112216034","PROVIDER_TYPE":"صيدلية","SPECIALITY":""},
{"DIVISION":"النبك وما حولها","NAME":"صيدلية سمية أحمد كحيل","REGION_TERR":"ريف دمشق","CITY":"معضمية القلمون","STREET":"الشارع العام","BUILDING":"خلف ثانوية الباسل - موقف الجسر","TEL":"117235630","PROVIDER_TYPE":"صيدلية","SPECIALITY":""},
{"DIVISION":"صحنايا وما حولها","NAME":"صيدلية سالي - اسماء محمد الموسى","REGION_TERR":"ريف دمشق","CITY":"صحنايا","STREET":"اشرفية صحنايا","BUILDING":"المساكن - شارع الركابي - جانب مخبر فرح","TEL":"117611752","PROVIDER_TYPE":"صيدلية","SPECIALITY":""},
{"DIVISION":"دمر وما حولها","NAME":"صيدلية محمد الشرابي","REGION_TERR":"دمشق","CITY":"مشروع دمر","STREET":"جزيرة 3","BUILDING":"نزلة الاسكان - جانب سوبر ماركت تالا","TEL":"113145739","PROVIDER_TYPE":"صيدلية","SPECIALITY":""},
{"DIVISION":"المزة و كفر سوسة","NAME":"صيدلية ريم ونوس","REGION_TERR":"دمشق","CITY":"المزة","STREET":"مزة 86","BUILDING":"طريق الخزان","TEL":"116614572","PROVIDER_TYPE":"صيدلية","SPECIALITY":""},
{"DIVISION":"قدسيا وما حولها","NAME":"صيدلية ناهد سلوم","REGION_TERR":"ريف دمشق","CITY":"قدسيا البلد","STREET":"جمعية الزراعة","BUILDING":"آخر موقف السرفيس","TEL":"113220067","PROVIDER_TYPE":"صيدلية","SPECIALITY":""},
{"DIVISION":"النبك وما حولها","NAME":"صيدلية بثينة حمدان","REGION_TERR":"ريف دمشق","CITY":"يبرود","STREET":"الشارع الرئيسي","BUILDING":"","TEL":"117810294","PROVIDER_TYPE":"صيدلية","SPECIALITY":""},
{"DIVISION":"جديدة عرطوز وما حولها","NAME":"صيدلية هناء محمد شكر","REGION_TERR":"ريف دمشق","CITY":"جديدة عرطوز","STREET":"الشارع الرئيسي","BUILDING":"","TEL":"116804542","PROVIDER_TYPE":"صيدلية","SPECIALITY":""},
{"DIVISION":"جديدة عرطوز وما حولها","NAME":"صيدلية سليم حداد","REGION_TERR":"ريف دمشق","CITY":"قطنا","STREET":"الشارع العام","BUILDING":"جانب المحكمة","TEL":"116820117","PROVIDER_TYPE":"صيدلية","SPECIALITY":""},
{"DIVISION":"صحنايا وما حولها","NAME":"صيدلية المودة - صبيحة كالو","REGION_TERR":"ريف دمشق","CITY":"صحنايا","STREET":"ساحة الأزروني","BUILDING":"دخلة المختار غزال - جانب مفاتيح الحمصي","TEL":"116732753","PROVIDER_TYPE":"صيدلية","SPECIALITY":""},
{"DIVISION":"المزة و كفر سوسة","NAME":"صيدلية الشام الجديدة - سهى كزبري","REGION_TERR":"دمشق","CITY":"المزة","STREET":"فيلات شرقية","BUILDING":"جانب جامع الاكرم","TEL":"0116123074 ; 0116119049","PROVIDER_TYPE":"صيدلية","SPECIALITY":""},
{"DIVISION":"المزة و كفر سوسة","NAME":"صيدلية البيروني . ناتالي نديم ابراهيم","REGION_TERR":"دمشق","CITY":"المزة","STREET":"فيلات شرقية","BUILDING":"خلف نقابة المعلمين -  مقابل دار البعث","TEL":"116110758","PROVIDER_TYPE":"صيدلية","SPECIALITY":""},
{"DIVISION":"دمر وما حولها","NAME":"صيدلية فادية المحرز","REGION_TERR":"دمشق","CITY":"دمر","STREET":"دمر الغربية","BUILDING":"حي الورود - الشارع العام","TEL":"113116261","PROVIDER_TYPE":"صيدلية","SPECIALITY":""},
{"DIVISION":"المزة و كفر سوسة","NAME":"صيدلية نسرين محمود جريعة","REGION_TERR":"دمشق","CITY":"المزة","STREET":"مزة 86","BUILDING":"الدخلة مقابل مدرسة حافظ ابراهيم","TEL":"116644353","PROVIDER_TYPE":"صيدلية","SPECIALITY":""},
{"DIVISION":"جديدة عرطوز وما حولها","NAME":"صيدلية محمد جهاد الجليلاتي","REGION_TERR":"ريف دمشق","CITY":"جديدة عرطوز","STREET":"شارع مارديني","BUILDING":"","TEL":"116818980","PROVIDER_TYPE":"صيدلية","SPECIALITY":""},
{"DIVISION":"صحنايا وما حولها","NAME":"صيدلية جيانا - جيانا العيد","REGION_TERR":"ريف دمشق","CITY":"صحنايا","STREET":"ساحة الازروني","BUILDING":"جانب روضة أطفال صحنايا","TEL":"116771877","PROVIDER_TYPE":"صيدلية","SPECIALITY":""},
{"DIVISION":"جديدة عرطوز وما حولها","NAME":"صيدلية احمد النادر","REGION_TERR":"ريف دمشق","CITY":"جديدة عرطوز","STREET":"الفضل","BUILDING":"شارع الاندلس","TEL":"116807079","PROVIDER_TYPE":"صيدلية","SPECIALITY":""},
{"DIVISION":"القصاع وما حوله","NAME":"صيدلية المعونة - ثناء بيطار","REGION_TERR":"دمشق","CITY":"قصاع","STREET":"ساحة جورج خوري","BUILDING":"","TEL":"114453883","PROVIDER_TYPE":"صيدلية","SPECIALITY":""},
{"DIVISION":"المزة و كفر سوسة","NAME":"صيدلية علا سواح","REGION_TERR":"دمشق","CITY":"كفرسوسة","STREET":"جانب جامع علي الدقر","BUILDING":"بناء العمري","TEL":"112142150","PROVIDER_TYPE":"صيدلية","SPECIALITY":""},
{"DIVISION":"عدرا وما حولها","NAME":"صيدلية ريم القائد","REGION_TERR":"ريف دمشق","CITY":"ضاحية الأسد - حرستا","STREET":"الجزيرة سي 5","BUILDING":"البناء 10 أ","TEL":"115356080","PROVIDER_TYPE":"صيدلية","SPECIALITY":""},
{"DIVISION":"المجتهد وما حولها","NAME":"صيدلية ريم الخليلي","REGION_TERR":"دمشق","CITY":"زاهرة","STREET":"الزاهرة القديمة","BUILDING":"مقابل جامع الماجد","TEL":"116300450","PROVIDER_TYPE":"صيدلية","SPECIALITY":""},
{"DIVISION":"القصاع وما حوله","NAME":"صيدلية رولا شاهين","REGION_TERR":"دمشق","CITY":"باب توما","STREET":"دخلة العازرية","BUILDING":"مقابل مدرسة المحبة الخاصة","TEL":"115428789","PROVIDER_TYPE":"صيدلية","SPECIALITY":""},
{"DIVISION":"صحنايا وما حولها","NAME":"صيدلية غباش - احمد عبد اللطيف غباش","REGION_TERR":"ريف دمشق","CITY":"الكسوة","STREET":"شارع المستوصف","BUILDING":"مقابل معرض الزهنان","TEL":"116915221","PROVIDER_TYPE":"صيدلية","SPECIALITY":""},
{"DIVISION":"المجتهد وما حولها","NAME":"صيدلية التوفيق - غفران الحافظ","REGION_TERR":"دمشق","CITY":"حجاز","STREET":"خلف البريد المركزي","BUILDING":"","TEL":"112229732","PROVIDER_TYPE":"صيدلية","SPECIALITY":""},
{"DIVISION":"ركن الدين وما حولها","NAME":"صيدلية الجبة - سمية محمد جبري","REGION_TERR":"دمشق","CITY":"شيخ محي الدين","STREET":"الجبة","BUILDING":"خلف مجمع النابلسي","TEL":"112742230","PROVIDER_TYPE":"صيدلية","SPECIALITY":""},
{"DIVISION":"المزة و كفر سوسة","NAME":"صيدلية ايمان دوبا","REGION_TERR":"دمشق","CITY":"المزة","STREET":"مزة 86","BUILDING":"ساحة عروس الجبل","TEL":"116662213","PROVIDER_TYPE":"صيدلية","SPECIALITY":""},
{"DIVISION":"طريق المطار وما حوله","NAME":"صيدلية اكرم العيد","REGION_TERR":"ريف دمشق","CITY":"جرمانا","STREET":"القريات","BUILDING":"جانب مدرسة الاسية الخاصة","TEL":"115631780","PROVIDER_TYPE":"صيدلية","SPECIALITY":""},
{"DIVISION":"التل وما حولها","NAME":"صيدلية نهلة الزاهر","REGION_TERR":"ريف دمشق","CITY":"صيدنايا","STREET":"الشارع العام","BUILDING":"","TEL":"115956518","PROVIDER_TYPE":"صيدلية","SPECIALITY":""},
{"DIVISION":"القصاع وما حوله","NAME":"صيدلية رولا فارس","REGION_TERR":"دمشق","CITY":"قصاع","STREET":"جناين الورد","BUILDING":"شارع حلب  - خلف جامع الفردوس","TEL":"114458996","PROVIDER_TYPE":"صيدلية","SPECIALITY":""},
{"DIVISION":"طريق المطار وما حوله","NAME":"صيدلية النهار - فاديا النهار","REGION_TERR":"ريف دمشق","CITY":"جرمانا","STREET":"شارع القوس","BUILDING":"مقابل الكلاس مول","TEL":"115680421","PROVIDER_TYPE":"صيدلية","SPECIALITY":""},
{"DIVISION":"صحنايا وما حولها","NAME":"صيدلية نوره - نهلة دحدل","REGION_TERR":"ريف دمشق","CITY":"صحنايا","STREET":"شارع النجوم","BUILDING":"مقابل سنتر تقى - البناء الجديد عاليمين","TEL":"116739001","PROVIDER_TYPE":"صيدلية","SPECIALITY":""},
{"DIVISION":"باب شرقي وما حولها","NAME":"صيدلية حسام خنيفس","REGION_TERR":"دمشق","CITY":"دويلعة","STREET":"دخلة يمين لمحل حلوة وصغيرة","BUILDING":"مقابل ملبوسات مهند وهنادي","TEL":"114723126","PROVIDER_TYPE":"صيدلية","SPECIALITY":""},
{"DIVISION":"عدرا وما حولها","NAME":"صيدلية علاء الدين محفوظ","REGION_TERR":"ريف دمشق","CITY":"عدرا  العمالية","STREET":"الجزيرة السابعة","BUILDING":"السوق التجاري - محل رقم 4","TEL":"115894747","PROVIDER_TYPE":"صيدلية","SPECIALITY":""},
{"DIVISION":"المجتهد وما حولها","NAME":"صيدلية البرامكة الحديثة","REGION_TERR":"دمشق","CITY":"برامكة","STREET":"سوق التجاري","BUILDING":"طريق الجمارك, مقابل الكازية العسكرية - بناء ياغشي و طباع","TEL":"112123285","PROVIDER_TYPE":"صيدلية","SPECIALITY":""},
{"DIVISION":"الروضة وما حولها","NAME":"صيدلية طارق شوكت","REGION_TERR":"دمشق","CITY":"الجسر الأبيض","STREET":"شارع نسيب البكري","BUILDING":"مقابل الركن الفرنسي","TEL":"113340507","PROVIDER_TYPE":"صيدلية","SPECIALITY":""},
{"DIVISION":"طريق المطار وما حوله","NAME":"صيدلية سارة - سارة عيسى الخليل","REGION_TERR":"ريف دمشق","CITY":"جرمانا","STREET":"شارع باسل","BUILDING":"بعد مطعم ريحانة","TEL":"115629969","PROVIDER_TYPE":"صيدلية","SPECIALITY":""},
{"DIVISION":"دمر وما حولها","NAME":"صيدلية الروضة - روضة شهاب الدين","REGION_TERR":"دمشق","CITY":"مشروع دمر","STREET":"جزيرة 15","BUILDING":"طريق التراسات - كتلة 8 - ضمن السوق التجاري","TEL":"113148977","PROVIDER_TYPE":"صيدلية","SPECIALITY":""},
{"DIVISION":"المزة و كفر سوسة","NAME":"الصيدلية المركزية النوعية - محمد قلاجو","REGION_TERR":"دمشق","CITY":"المزة","STREET":"فيلات غربية","BUILDING":"ضمن بناء السيتي مول","TEL":"116660111","PROVIDER_TYPE":"صيدلية","SPECIALITY":""},
{"DIVISION":"ركن الدين وما حولها","NAME":"صيدلية آلاء - علاء التيناوي","REGION_TERR":"دمشق","CITY":"برزة","STREET":"مساكن برزة","BUILDING":"خلف بناء بلدية مساكن برزة","TEL":"115141280","PROVIDER_TYPE":"صيدلية","SPECIALITY":""},
{"DIVISION":"الروضة وما حولها","NAME":"صيدلية المهاجرين - رندة دراقي","REGION_TERR":"دمشق","CITY":"مهاجرين","STREET":"سكه","BUILDING":"الشارع العام قبل طلعه عاطف","TEL":"113717379","PROVIDER_TYPE":"صيدلية","SPECIALITY":""},
{"DIVISION":"المزة و كفر سوسة","NAME":"صيدلية مفيد الكردي","REGION_TERR":"دمشق","CITY":"المزة","STREET":"فيلات غربية","BUILDING":"خلف مشفى يافا","TEL":"116115858","PROVIDER_TYPE":"صيدلية","SPECIALITY":""},
{"DIVISION":"المجتهد وما حولها","NAME":"صيدلية سلطان - ميادة فتاحي","REGION_TERR":"دمشق","CITY":"شارع خالد بن الوليد","STREET":"خلف موقف شويكة","BUILDING":"","TEL":"112246146","PROVIDER_TYPE":"صيدلية","SPECIALITY":""},
{"DIVISION":"المزة و كفر سوسة","NAME":"صيدلية منى الصواف","REGION_TERR":"دمشق","CITY":"المزة","STREET":"المواساة","BUILDING":"خلف مشفى الأطفال - جانب مشفى جمعية المواساة الخيرية","TEL":"116665006","PROVIDER_TYPE":"صيدلية","SPECIALITY":""},
{"DIVISION":"طريق المطار وما حوله","NAME":"صيدلية دنيز الداود","REGION_TERR":"ريف دمشق","CITY":"جرمانا","STREET":"الروضة","BUILDING":"ساحة الروضة - مقابل مطعم النبيل","TEL":"115627220","PROVIDER_TYPE":"صيدلية","SPECIALITY":""},
{"DIVISION":"شارع بغداد وما حوله","NAME":"صيدلية الصفدي - هالة شاهين","REGION_TERR":"دمشق","CITY":"شارع بغداد","STREET":"جادة الميرة","BUILDING":"جانب المستوصف العسكري","TEL":"114412367","PROVIDER_TYPE":"صيدلية","SPECIALITY":""},
{"DIVISION":"ساحة المحافظة وما حولها","NAME":"صيدلية سورية - لمى خضر","REGION_TERR":"دمشق","CITY":"ساحة السبع بحرات","STREET":"مقابل البنك المركزي","BUILDING":"جانب الصيدلية المركزية","TEL":"114417017","PROVIDER_TYPE":"صيدلية","SPECIALITY":""},
{"DIVISION":"القصاع وما حوله","NAME":"صيدلية نونة - بسام نونة","REGION_TERR":"دمشق","CITY":"تجارة","STREET":"جانب حديقة التجارة","BUILDING":"","TEL":"0114471525 ; 0114411022","PROVIDER_TYPE":"صيدلية","SPECIALITY":""},
{"DIVISION":"المجتهد وما حولها","NAME":"صيدلية ابن زيدون - محمد وائل واصل الصفدي","REGION_TERR":"دمشق","CITY":"مجتهد","STREET":"الشارع العام","BUILDING":"بين مشفى المجتهد وباب مصلى","TEL":"118882264","PROVIDER_TYPE":"صيدلية","SPECIALITY":""},
{"DIVISION":"ركن الدين وما حولها","NAME":"صيدلية الشفاء - مجد محمد جودت جمعه","REGION_TERR":"دمشق","CITY":"مزرعة","STREET":"دخلة مخبر درويش","BUILDING":"","TEL":"114434914","PROVIDER_TYPE":"صيدلية","SPECIALITY":""},
{"DIVISION":"الروضة وما حولها","NAME":"صيدلية روضة دياب","REGION_TERR":"دمشق","CITY":"الجسر الأبيض","STREET":"شارع نسيب البكري","BUILDING":"مقابل بلدية المهاجرين","TEL":"113322254","PROVIDER_TYPE":"صيدلية","SPECIALITY":""},
{"DIVISION":"قدسيا وما حولها","NAME":"صيدلية الوسيم - مريم عرابي","REGION_TERR":"ريف دمشق","CITY":"ضاحية قدسيا","STREET":"جزيرة D2","BUILDING":"غرب دوار العلم","TEL":"113450607","PROVIDER_TYPE":"صيدلية","SPECIALITY":""},
{"DIVISION":"القصاع وما حوله","NAME":"صيدلية فادي عبد النور","REGION_TERR":"دمشق","CITY":"عباسيين","STREET":"ساحة العباسيين","BUILDING":"","TEL":"114423242","PROVIDER_TYPE":"صيدلية","SPECIALITY":""},
{"DIVISION":"الروضة وما حولها","NAME":"صيدلية A TO Z - احمد زرزور","REGION_TERR":"دمشق","CITY":"ابو رمانة","STREET":"ساحة النجمة","BUILDING":"الجمعية الطبية السورية - جانب بنك الشام","TEL":"113311433","PROVIDER_TYPE":"صيدلية","SPECIALITY":""},
{"DIVISION":"النبك وما حولها","NAME":"صيدلية مشفى المدينة الطبية","REGION_TERR":"ريف دمشق","CITY":"دير عطية","STREET":"الشارع الرئيسي","BUILDING":"","TEL":"117835000","PROVIDER_TYPE":"صيدلية","SPECIALITY":""},
{"DIVISION":"المزة و كفر سوسة","NAME":"صيدلية حيدر شياح","REGION_TERR":"دمشق","CITY":"كفرسوسة","STREET":"شارع الجمالة","BUILDING":"","TEL":"112115208","PROVIDER_TYPE":"صيدلية","SPECIALITY":""},
{"DIVISION":"الروضة وما حولها","NAME":"توفيق مرعي مهجع","REGION_TERR":"دمشق","CITY":"الشعلان","STREET":"سوق الخضار","BUILDING":"جانب الرضائي للعرائس -  مركز الشعلان الطبي","TEL":"113347830","PROVIDER_TYPE":"طبيب","SPECIALITY":"أذن أنف حنجرة"},
{"DIVISION":"المزة و كفر سوسة","NAME":"محمد نصر الزير","REGION_TERR":"دمشق","CITY":"المزة","STREET":"مزة جبل","BUILDING":"جانب صيدلية هدى البيات - شارع عمر الخيام","TEL":"116611451","PROVIDER_TYPE":"طبيب","SPECIALITY":"أذن أنف حنجرة"},
{"DIVISION":"المجتهد وما حولها","NAME":"فادي فاضل غازي","REGION_TERR":"دمشق","CITY":"برامكة","STREET":"شارع مصعب ابن عمير","BUILDING":"طابق ارضي","TEL":"112129050","PROVIDER_TYPE":"طبيب","SPECIALITY":"أذن أنف حنجرة"},
{"DIVISION":"القصاع وما حوله","NAME":"وائل ايلي بغدان","REGION_TERR":"دمشق","CITY":"قصاع","STREET":"برج الروس","BUILDING":"مقابل باب الاسعاف لمشفى الفرنسي","TEL":"115430308","PROVIDER_TYPE":"طبيب","SPECIALITY":"أذن أنف حنجرة"},
{"DIVISION":"المزة و كفر سوسة","NAME":"لؤي ظافر النحاس","REGION_TERR":"دمشق","CITY":"المزة","STREET":"فيلات غربية","BUILDING":"بناء السيتي مول كوين سنتر - طابق M","TEL":"116666885","PROVIDER_TYPE":"طبيب","SPECIALITY":"أذن أنف حنجرة"},
{"DIVISION":"المجتهد وما حولها","NAME":"محمد عماد ياسين زريق","REGION_TERR":"دمشق","CITY":"شارع خالد بن الوليد","STREET":"مشفى الكندي","BUILDING":"مقابل جامع عبد الرحمن","TEL":"112228713","PROVIDER_TYPE":"طبيب","SPECIALITY":"أذن أنف حنجرة"},
{"DIVISION":"الروضة وما حولها","NAME":"دارين رياض مالك","REGION_TERR":"دمشق","CITY":"الحمراء","STREET":"شارع الشعلان","BUILDING":"بناء رقم 4","TEL":"113349251","PROVIDER_TYPE":"طبيب","SPECIALITY":"أذن أنف حنجرة"},
{"DIVISION":"المزة و كفر سوسة","NAME":"اياد علي نجيبة","REGION_TERR":"دمشق","CITY":"كفرسوسة","STREET":"موقف الساحة","BUILDING":"مقابل فرن الصباح","TEL":"112140611","PROVIDER_TYPE":"طبيب","SPECIALITY":"أذن أنف حنجرة"},
{"DIVISION":"طريق المطار وما حوله","NAME":"مروان سعدون خليل","REGION_TERR":"ريف دمشق","CITY":"جرمانا","STREET":"ساحة الرئيس","BUILDING":"الطريق العام - بعد MTN","TEL":"115657110","PROVIDER_TYPE":"طبيب","SPECIALITY":"أذن أنف حنجرة"},
{"DIVISION":"صحنايا وما حولها","NAME":"وحيد صقر ملاك","REGION_TERR":"ريف دمشق","CITY":"صحنايا","STREET":"الشارع الرئيسي","BUILDING":"موقف الساعة - تحت مخبر الفجر","TEL":"116710048","PROVIDER_TYPE":"طبيب","SPECIALITY":"أذن أنف حنجرة"},
{"DIVISION":"صحنايا وما حولها","NAME":"عماد محمد مهدي عبد الباقي","REGION_TERR":"ريف دمشق","CITY":"صحنايا","STREET":"الشارع الرئيسي","BUILDING":"مقابل بنك بيمو","TEL":"116731708","PROVIDER_TYPE":"طبيب","SPECIALITY":"أذن أنف حنجرة"},
{"DIVISION":"قدسيا وما حولها","NAME":"نهاد عمر مصطفى","REGION_TERR":"ريف دمشق","CITY":"ضاحية قدسيا","STREET":"جزيرة سي 3","BUILDING":"قرب جامع القدسي البناء 3/2","TEL":"113446000","PROVIDER_TYPE":"طبيب","SPECIALITY":"أذن أنف حنجرة"},
{"DIVISION":"دمر وما حولها","NAME":"آلاء محمد علي","REGION_TERR":"دمشق","CITY":"مشروع دمر","STREET":"جزيرة 4 اسكان","BUILDING":"بناء السوق التجاري - جانب صيدلية باسل دياب","TEL":"113142030","PROVIDER_TYPE":"طبيب","SPECIALITY":"أطفال"},
{"DIVISION":"طريق المطار وما حوله","NAME":"ميرفت الزعل العزام","REGION_TERR":"ريف دمشق","CITY":"جرمانا","STREET":"الروضة","BUILDING":"بناء مصري - مقابل فروج البيك","TEL":"115612481","PROVIDER_TYPE":"طبيب","SPECIALITY":"أطفال"},
{"DIVISION":"المزة و كفر سوسة","NAME":"محمد وائل الدغلي","REGION_TERR":"دمشق","CITY":"المزة","STREET":"شيخ سعد","BUILDING":"قرب صيديلة الحنفي","TEL":"116615455","PROVIDER_TYPE":"طبيب","SPECIALITY":"أطفال"},
{"DIVISION":"المجتهد وما حولها","NAME":"أحمد أحمد فارس السحار","REGION_TERR":"دمشق","CITY":"باب مصلى","STREET":"مقابل نادي المجد الرياضي","BUILDING":"باتجاه كراج درعا والسويداء","TEL":"0118814289 ; 0118885200","PROVIDER_TYPE":"طبيب","SPECIALITY":"أطفال"},
{"DIVISION":"الروضة وما حولها","NAME":"أيمن نعيم العجلوني","REGION_TERR":"دمشق","CITY":"الجسر الأبيض","STREET":"شارع نسيب البكري","BUILDING":"مقابل الركن الفرنسي","TEL":"113319653","PROVIDER_TYPE":"طبيب","SPECIALITY":"أطفال"},
{"DIVISION":"طريق المطار وما حوله","NAME":"ثائر توفيق فضول","REGION_TERR":"ريف دمشق","CITY":"جرمانا","STREET":"الشارع العام","BUILDING":"موقف البيدر, بناء نيو بوي","TEL":"115616733","PROVIDER_TYPE":"طبيب","SPECIALITY":"أطفال"},
{"DIVISION":"صحنايا وما حولها","NAME":"علي نجم نوفل","REGION_TERR":"ريف دمشق","CITY":"صحنايا","STREET":"جانب بناء SOS","BUILDING":"","TEL":"0116721477 ; 0116222817","PROVIDER_TYPE":"طبيب","SPECIALITY":"أطفال"},
{"DIVISION":"قدسيا وما حولها","NAME":"سمانة عبداللطيف العذبة","REGION_TERR":"ريف دمشق","CITY":"ضاحية قدسيا","STREET":"جزيرة ب 1","BUILDING":"بناء 2/5","TEL":"113441072","PROVIDER_TYPE":"طبيب","SPECIALITY":"أطفال"},
{"DIVISION":"القصاع وما حوله","NAME":"فواز حسان ديروان","REGION_TERR":"دمشق","CITY":"عدوي","STREET":"ضمن مشفى دار الشفاء الجديد","BUILDING":"","TEL":"114465340","PROVIDER_TYPE":"طبيب","SPECIALITY":"أمراض الدم و معالجة الأورام"},
{"DIVISION":"القصاع وما حوله","NAME":"مها فرج الله مناشي","REGION_TERR":"دمشق","CITY":"قصاع","STREET":"ضمن مشفى الفرنسي","BUILDING":"","TEL":"114462918","PROVIDER_TYPE":"طبيب","SPECIALITY":"أمراض الدم و معالجة الأورام"},
{"DIVISION":"الروضة وما حولها","NAME":"زاهرة عبد الرحمن فهد","REGION_TERR":"دمشق","CITY":"الحمراء","STREET":"شارع الحمراء","BUILDING":"بناء رقم 13- ط 3","TEL":"113312921","PROVIDER_TYPE":"طبيب","SPECIALITY":"أمراض الدم و معالجة الأورام"},
{"DIVISION":"عدرا وما حولها","NAME":"شادي عادل ديوب","REGION_TERR":"ريف دمشق","CITY":"ضاحية الأسد - حرستا","STREET":"جانب دوار البلدية","BUILDING":"فوق المؤسسة العسكرية","TEL":"115353311","PROVIDER_TYPE":"طبيب","SPECIALITY":"أمراض الدم و معالجة الأورام"},
{"DIVISION":"الروضة وما حولها","NAME":"شريف هاني السالم","REGION_TERR":"دمشق","CITY":"الحمراء","STREET":"شارع الحمراء","BUILDING":"جانب مراب المواصلات - بناء رقم2 - ط2","TEL":"113313333","PROVIDER_TYPE":"طبيب","SPECIALITY":"تشريح مرضي"},
{"DIVISION":"القصاع وما حوله","NAME":"حنان أنطون عقل","REGION_TERR":"دمشق","CITY":"قصاع","STREET":"جانب باب الاسعاف لمشفى الفرنسي","BUILDING":"","TEL":"114420971","PROVIDER_TYPE":"طبيب","SPECIALITY":"تشريح مرضي"},
{"DIVISION":"طريق المطار وما حوله","NAME":"مصعب عبدو طحومي","REGION_TERR":"ريف دمشق","CITY":"جرمانا","STREET":"فوق مطعم النجوم","BUILDING":"","TEL":"115624925","PROVIDER_TYPE":"طبيب","SPECIALITY":"جراحة بولية و تناسلية"},
{"DIVISION":"المزة و كفر سوسة","NAME":"مازن اسماعيل علوش","REGION_TERR":"دمشق","CITY":"المزة","STREET":"شيخ سعد","BUILDING":"شارع الوليد بن عبد الملك - بناء محفوض","TEL":"116664749","PROVIDER_TYPE":"طبيب","SPECIALITY":"جراحة بولية و تناسلية"},
{"DIVISION":"شارع بغداد وما حوله","NAME":"مازن عدنان حيدر","REGION_TERR":"دمشق","CITY":"شارع الثورة","STREET":"سنجقدار","BUILDING":"مقابل جسر الثورة - بناء موصللي و دالاتي","TEL":"112310508","PROVIDER_TYPE":"طبيب","SPECIALITY":"جراحة بولية و تناسلية"},
{"DIVISION":"ركن الدين وما حولها","NAME":"شادي محمد ابراهيم","REGION_TERR":"دمشق","CITY":"برزة","STREET":"مساكن برزة","BUILDING":"مقابل المدينة الجامعية - الشارع الرئيسي","TEL":"115118213","PROVIDER_TYPE":"طبيب","SPECIALITY":"جراحة بولية و تناسلية"},
{"DIVISION":"ساحة المحافظة وما حولها","NAME":"سعد جودت كيال","REGION_TERR":"دمشق","CITY":"فردوس","STREET":"شارع ابو الفضل المرادي","BUILDING":"مقابل التأمينات الاجتماعية","TEL":"112222607","PROVIDER_TYPE":"طبيب","SPECIALITY":"جراحة بولية و تناسلية"},
{"DIVISION":"الروضة وما حولها","NAME":"مازن عبد الحميد زيتونة","REGION_TERR":"دمشق","CITY":"الجسر الأبيض","STREET":"نزلة الطلياني","BUILDING":"مقابل جادة الرئيس","TEL":"113311779","PROVIDER_TYPE":"طبيب","SPECIALITY":"جراحة بولية و تناسلية"},
{"DIVISION":"القصاع وما حوله","NAME":"حبيب عدنان بشور","REGION_TERR":"دمشق","CITY":"قصور","STREET":"دخلة أزهار حدائق الشام","BUILDING":"بناء رقم 144","TEL":"114446538","PROVIDER_TYPE":"طبيب","SPECIALITY":"جراحة بولية و تناسلية"},
{"DIVISION":"ساحة المحافظة وما حولها","NAME":"جورج اسكندر السحوم","REGION_TERR":"دمشق","CITY":"ساحة المرجة","STREET":"بناء القادري","BUILDING":"","TEL":"112245245","PROVIDER_TYPE":"طبيب","SPECIALITY":"جراحة بولية و تناسلية"},
{"DIVISION":"الروضة وما حولها","NAME":"باسل رياض مالك","REGION_TERR":"دمشق","CITY":"الحمراء","STREET":"شارع الحمرا","BUILDING":"بناء الكويت - فوق عصير ابو شاكر","TEL":"113349250","PROVIDER_TYPE":"طبيب","SPECIALITY":"جراحة بولية و تناسلية"},
{"DIVISION":"المزة و كفر سوسة","NAME":"محمد صلاح حسين","REGION_TERR":"دمشق","CITY":"كفرسوسة","STREET":"دوار كفر سوسة","BUILDING":"مقابل جريدة الثورة","TEL":"112252262","PROVIDER_TYPE":"طبيب","SPECIALITY":"جراحة بولية و تناسلية"},
{"DIVISION":"صحنايا وما حولها","NAME":"أسامة سليمان العلاف","REGION_TERR":"ريف دمشق","CITY":"صحنايا","STREET":"تنظيم","BUILDING":"شارع النجوم، بعد ساحة ازروني ب 200 متر","TEL":"116732994","PROVIDER_TYPE":"طبيب","SPECIALITY":"جراحة بولية و تناسلية"},
{"DIVISION":"قدسيا وما حولها","NAME":"مزيد علي أحمد","REGION_TERR":"ريف دمشق","CITY":"ضاحية قدسيا","STREET":"السوق التجاري المركزي","BUILDING":"فوق صيدلية الضاحية","TEL":"113445288","PROVIDER_TYPE":"طبيب","SPECIALITY":"جراحة بولية و تناسلية"},
{"DIVISION":"طريق المطار وما حوله","NAME":"طارق مطانيوس الحارث","REGION_TERR":"ريف دمشق","CITY":"جرمانا","STREET":"ساحة الرئيس","BUILDING":"مقابل نبيل نفيسة","TEL":"115660064","PROVIDER_TYPE":"طبيب","SPECIALITY":"جراحة عامة"},
{"DIVISION":"ساحة المحافظة وما حولها","NAME":"طريف محمد قحطان العيطة","REGION_TERR":"دمشق","CITY":"بحصة","STREET":"شارع بورسعيد","BUILDING":"مقابل قهوة هافانا - بناء نحاس - ط 3","TEL":"112315535","PROVIDER_TYPE":"طبيب","SPECIALITY":"جراحة عامة"},
{"DIVISION":"ساحة المحافظة وما حولها","NAME":"لؤي عثمان نهاد الترزي","REGION_TERR":"دمشق","CITY":"صالحية","STREET":"مقابل البرلمان","BUILDING":"بناء برج الصالحية","TEL":"112323822","PROVIDER_TYPE":"طبيب","SPECIALITY":"جراحة عامة وجراحة أوعية"},
{"DIVISION":"ساحة المحافظة وما حولها","NAME":"ابراهيم علي محمود","REGION_TERR":"دمشق","CITY":"بحصة","STREET":"جانب فندق فينيسيا","BUILDING":"قرب فندق فينيسيا","TEL":"112318547","PROVIDER_TYPE":"طبيب","SPECIALITY":"جراحة عصبية"},
{"DIVISION":"ركن الدين وما حولها","NAME":"أسلم مصطفى الحسين","REGION_TERR":"دمشق","CITY":"ركن الدين","STREET":"جانب جامع صلاح الدين","BUILDING":"سوق الصاغة","TEL":"112764325","PROVIDER_TYPE":"طبيب","SPECIALITY":"جراحة عصبية"},
{"DIVISION":"طريق المطار وما حوله","NAME":"هدى جبرائيل الاصيل","REGION_TERR":"ريف دمشق","CITY":"جرمانا","STREET":"شارع القوس","BUILDING":"مقابل كلاس مول","TEL":"933494138","PROVIDER_TYPE":"طبيب","SPECIALITY":"جلدية"},
{"DIVISION":"الروضة وما حولها","NAME":"غسان حسن الكضيب العبودي","REGION_TERR":"دمشق","CITY":"الشعلان","STREET":"سوق الخضار","BUILDING":"جانب الرضائي للعرائس - مركز الشعلان الطبي","TEL":"113319301","PROVIDER_TYPE":"طبيب","SPECIALITY":"جلدية"},
{"DIVISION":"الروضة وما حولها","NAME":"محمد نزار عبد الرحمن دقر","REGION_TERR":"دمشق","CITY":"الجسر الأبيض","STREET":"طلياني","BUILDING":"نزلة مشفى الطلياني - ط1","TEL":"113339946","PROVIDER_TYPE":"طبيب","SPECIALITY":"جلدية"},
{"DIVISION":"القصاع وما حوله","NAME":"فريد عبد الله طعمة","REGION_TERR":"دمشق","CITY":"تجارة","STREET":"أخر كورنيش التجارة","BUILDING":"جانب مركز السابع من نيسان الصحي","TEL":"0114451350 ; 0114432796","PROVIDER_TYPE":"طبيب","SPECIALITY":"جلدية"},
{"DIVISION":"القصاع وما حوله","NAME":"راميا حبيب كبابة","REGION_TERR":"دمشق","CITY":"قصاع","STREET":"غساني","BUILDING":"بناء زيات - مقابل مطعم اللانوازيت","TEL":"114465193","PROVIDER_TYPE":"طبيب","SPECIALITY":"جلدية"},
{"DIVISION":"المزة و كفر سوسة","NAME":"بسيم صبحي صيقار","REGION_TERR":"دمشق","CITY":"المزة","STREET":"شيخ سعد","BUILDING":"بناء14 -   الاسكان  -  مقابل مدرسة بنات الشهداء -  بناء البواب ط1","TEL":"116627250","PROVIDER_TYPE":"طبيب","SPECIALITY":"جلدية"},
{"DIVISION":"الروضة وما حولها","NAME":"فاتن كمال حمامية","REGION_TERR":"دمشق","CITY":"الجسر الأبيض","STREET":"شارع نسيب البكري","BUILDING":"مقابل الركن الفرنسي","TEL":"113319282","PROVIDER_TYPE":"طبيب","SPECIALITY":"جلدية"},
{"DIVISION":"صحنايا وما حولها","NAME":"الياس جميل أبو طبيخ","REGION_TERR":"ريف دمشق","CITY":"صحنايا","STREET":"ساحة الارزوني","BUILDING":"بناء د. الياس ابو طبيخ","TEL":"116720493","PROVIDER_TYPE":"طبيب","SPECIALITY":"جلدية"},
{"DIVISION":"الزبداني و بلودان","NAME":"بسام ابراهيم الكويفي","REGION_TERR":"ريف دمشق","CITY":"الزبداني","STREET":"محطة","BUILDING":"","TEL":"988486656","PROVIDER_TYPE":"طبيب","SPECIALITY":"داخلية"},
{"DIVISION":"صحنايا وما حولها","NAME":"حسن محمد العتر","REGION_TERR":"ريف دمشق","CITY":"أشرفية صحنايا","STREET":"موقف الطيارة","BUILDING":"شارع حسين زين - قرب صيدلية عبير","TEL":"116714776","PROVIDER_TYPE":"طبيب","SPECIALITY":"داخلية"},
{"DIVISION":"جديدة عرطوز وما حولها","NAME":"خالد عبد الله عثمان","REGION_TERR":"ريف دمشق","CITY":"جديدة عرطوز","STREET":"شارع مارديني","BUILDING":"قرب الهاتف","TEL":"932237110","PROVIDER_TYPE":"طبيب","SPECIALITY":"داخلية"},
{"DIVISION":"طريق المطار وما حوله","NAME":"نورس وجيه فلوح","REGION_TERR":"ريف دمشق","CITY":"جرمانا","STREET":"ساحة السيوف","BUILDING":"مقابل الموقف","TEL":"115644737","PROVIDER_TYPE":"طبيب","SPECIALITY":"داخلية"},
{"DIVISION":"طريق المطار وما حوله","NAME":"جورج فرحان عساف","REGION_TERR":"ريف دمشق","CITY":"جرمانا","STREET":"كشكول","BUILDING":"قرب كنيسة ابراهيم الخليل","TEL":"115687644","PROVIDER_TYPE":"طبيب","SPECIALITY":"داخلية"},
{"DIVISION":"صحنايا وما حولها","NAME":"حسن علي علي","REGION_TERR":"ريف دمشق","CITY":"صحنايا","STREET":"طريق الكسوة القديم","BUILDING":"طلعة البارده حارة بناية الكويتي -الشارع الرئيسي- على بعد 200 متر -جانب عيادة طبيب الاسنان يوسف نصار","TEL":"118228676","PROVIDER_TYPE":"طبيب","SPECIALITY":"داخلية"},
{"DIVISION":"ساحة المحافظة وما حولها","NAME":"خالد محمد الخياط","REGION_TERR":"دمشق","CITY":"شارع العابد","STREET":"الشارع العام","BUILDING":"بناء صباغ - ط 1","TEL":"114447720","PROVIDER_TYPE":"طبيب","SPECIALITY":"داخلية"},
{"DIVISION":"القصاع وما حوله","NAME":"ميشيل جميل خوري","REGION_TERR":"دمشق","CITY":"قصور","STREET":"تحت مختبر الشاغور","BUILDING":"","TEL":"114456311","PROVIDER_TYPE":"طبيب","SPECIALITY":"داخلية"},
{"DIVISION":"دمر وما حولها","NAME":"هدى ديب جاويش","REGION_TERR":"دمشق","CITY":"مشروع دمر","STREET":"جزيرة 10","BUILDING":"السوق التجاري - تحت مطعم فيرانو","TEL":"113124840","PROVIDER_TYPE":"طبيب","SPECIALITY":"داخلية"},
{"DIVISION":"الروضة وما حولها","NAME":"محمد معتز نظمي الفرا","REGION_TERR":"دمشق","CITY":"الشعلان","STREET":"حبوبي ثاني","BUILDING":"","TEL":"113336329","PROVIDER_TYPE":"طبيب","SPECIALITY":"داخلية"},
{"DIVISION":"المزة و كفر سوسة","NAME":"علي حميدوش حميدوش","REGION_TERR":"دمشق","CITY":"المزة","STREET":"مزة 86","BUILDING":"شارع حسني صباح","TEL":"116622717","PROVIDER_TYPE":"طبيب","SPECIALITY":"داخلية"},
{"DIVISION":"صحنايا وما حولها","NAME":"أسامة حنا مارديني","REGION_TERR":"ريف دمشق","CITY":"صحنايا","STREET":"ساحة ازروني","BUILDING":"الشارع الرئيسي - فوق سناك الزين","TEL":"116711064","PROVIDER_TYPE":"طبيب","SPECIALITY":"داخلية"},
{"DIVISION":"الروضة وما حولها","NAME":"عامر عبد اللطيف عدي","REGION_TERR":"دمشق","CITY":"الجسر الأبيض","STREET":"أول طلعة العفيف","BUILDING":"","TEL":"113318606","PROVIDER_TYPE":"طبيب","SPECIALITY":"داخلية"},
{"DIVISION":"الروضة وما حولها","NAME":"عبد الرزاق محمد الخطيب","REGION_TERR":"دمشق","CITY":"ابو رمانة","STREET":"جانب جامع الروضة","BUILDING":"بناء ملص - الطابق الارضي","TEL":"113337111","PROVIDER_TYPE":"طبيب","SPECIALITY":"داخلية"},
{"DIVISION":"المجتهد وما حولها","NAME":"غياث ابرهيم جواد","REGION_TERR":"دمشق","CITY":"شارع الامين","STREET":"دوار سوق الخضار","BUILDING":"","TEL":"115434224","PROVIDER_TYPE":"طبيب","SPECIALITY":"داخلية"},
{"DIVISION":"المزة و كفر سوسة","NAME":"عصام محمد مصري","REGION_TERR":"دمشق","CITY":"المزة","STREET":"شيخ سعد","BUILDING":"دخلة ملحمة شبيكة - ساحه الضباط","TEL":"944426294","PROVIDER_TYPE":"طبيب","SPECIALITY":"داخلية"},
{"DIVISION":"القصاع وما حوله","NAME":"باسم محسن الخليل","REGION_TERR":"دمشق","CITY":"قصاع","STREET":"مقابل اسعاف مشفى الفرنسي","BUILDING":"جانب مدرسة المعونة - بناء الزحلاوي","TEL":"114448566","PROVIDER_TYPE":"طبيب","SPECIALITY":"داخلية"},
{"DIVISION":"المزة و كفر سوسة","NAME":"رغداء عهد الزعبي","REGION_TERR":"دمشق","CITY":"كفرسوسة","STREET":"دخلة ملعب تشرين","BUILDING":"مقابل فندق تشرين -بناء رقم 27 طابق1","TEL":"112126166","PROVIDER_TYPE":"طبيب","SPECIALITY":"داخلية"},
{"DIVISION":"طريق المطار وما حوله","NAME":"عامر نايف زهر الدين","REGION_TERR":"ريف دمشق","CITY":"جرمانا","STREET":"موقف الوكالة","BUILDING":"جانب بوظة أمية","TEL":"115617979","PROVIDER_TYPE":"طبيب","SPECIALITY":"صدرية"},
{"DIVISION":"الروضة وما حولها","NAME":"أحمد بسام الشيخ عطية","REGION_TERR":"دمشق","CITY":"الشعلان","STREET":"سوق الخضار","BUILDING":"جانب الرضائي للعرائس -  مركز الشعلان الطبي","TEL":"113319301","PROVIDER_TYPE":"طبيب","SPECIALITY":"صدرية"},
{"DIVISION":"الروضة وما حولها","NAME":"زياد حسان قلم","REGION_TERR":"دمشق","CITY":"الحمراء","STREET":"شارع الحمراء","BUILDING":"مفرق الشعلان الرئيسي - بناء 13","TEL":"113329441","PROVIDER_TYPE":"طبيب","SPECIALITY":"صدرية"},
{"DIVISION":"ساحة المحافظة وما حولها","NAME":"أحمد هيثم محمد بشير نصري","REGION_TERR":"دمشق","CITY":"شارع الباكستان","STREET":"الشارع العام","BUILDING":"بناء نقابة المهندسيين","TEL":"114451682","PROVIDER_TYPE":"طبيب","SPECIALITY":"صدرية"},
{"DIVISION":"القصاع وما حوله","NAME":"نايف حنا شاهين","REGION_TERR":"دمشق","CITY":"قصاع","STREET":"جانب ابتدائية البنات","BUILDING":"","TEL":"114449525","PROVIDER_TYPE":"طبيب","SPECIALITY":"صدرية"},
{"DIVISION":"طريق المطار وما حوله","NAME":"نبيل تامر بجور","REGION_TERR":"ريف دمشق","CITY":"جرمانا","STREET":"ساحة الرئيس","BUILDING":"جانب محل بن أبو سمرة","TEL":"115695186","PROVIDER_TYPE":"طبيب","SPECIALITY":"عصبية"},
{"DIVISION":"الروضة وما حولها","NAME":"ابراهيم مرعي اللطيف","REGION_TERR":"دمشق","CITY":"الجسر الأبيض","STREET":"دوار وزارة  التربية","BUILDING":"قرب صيدلية الوفاء","TEL":"113340666","PROVIDER_TYPE":"طبيب","SPECIALITY":"عصبية"},
{"DIVISION":"ساحة المحافظة وما حولها","NAME":"ياسر أحمد بدر","REGION_TERR":"دمشق","CITY":"ساحة السبع بحرات","STREET":"اول شارع بغداد","BUILDING":"بناء تصوير المنار- القبو","TEL":"112325490","PROVIDER_TYPE":"طبيب","SPECIALITY":"عصبية"},
{"DIVISION":"ركن الدين وما حولها","NAME":"علي ابراهيم محمود","REGION_TERR":"دمشق","CITY":"مزرعة","STREET":"ساحة الشهبندر","BUILDING":"جانب صيدلية السبع بحرات - بناء عبد االرحمن الغافقي","TEL":"114431445","PROVIDER_TYPE":"طبيب","SPECIALITY":"عظمية"},
{"DIVISION":"ركن الدين وما حولها","NAME":"ستالين نجم الدين كغدو","REGION_TERR":"دمشق","CITY":"برزة","STREET":"مساكن برزة","BUILDING":"مقابل مشفى ابن النفيس - بناء41","TEL":"115111591","PROVIDER_TYPE":"طبيب","SPECIALITY":"عظمية"},
{"DIVISION":"المزة و كفر سوسة","NAME":"علي طالب طالب","REGION_TERR":"دمشق","CITY":"المزة","STREET":"شيخ سعد","BUILDING":"مقابل معهد التنمية الفكرية","TEL":"116612738","PROVIDER_TYPE":"طبيب","SPECIALITY":"عظمية"},
{"DIVISION":"المجتهد وما حولها","NAME":"عصام سامي علي","REGION_TERR":"دمشق","CITY":"مجتهد","STREET":"الشارع العام","BUILDING":"بين باب مصلى و مشفى المجتهد","TEL":"112211443","PROVIDER_TYPE":"طبيب","SPECIALITY":"عظمية"},
{"DIVISION":"المزة و كفر سوسة","NAME":"محمد نصر درويش","REGION_TERR":"دمشق","CITY":"المزة","STREET":"شيخ سعد","BUILDING":"الشارع العام","TEL":"116625681","PROVIDER_TYPE":"طبيب","SPECIALITY":"عظمية"},
{"DIVISION":"دمر وما حولها","NAME":"اسامة مصطفى الترك","REGION_TERR":"دمشق","CITY":"مشروع دمر","STREET":"جزيرة 4 اسكان","BUILDING":"بناء ت 3","TEL":"113123325","PROVIDER_TYPE":"طبيب","SPECIALITY":"عظمية"},
{"DIVISION":"ساحة المحافظة وما حولها","NAME":"ربيع أحمد دعبول","REGION_TERR":"دمشق","CITY":"شارع 29 ايار","STREET":"خلف مشفى الشرق","BUILDING":"بناء رقم 17","TEL":"112323525","PROVIDER_TYPE":"طبيب","SPECIALITY":"عظمية"},
{"DIVISION":"جديدة عرطوز وما حولها","NAME":"فايزة نقولا نخلي","REGION_TERR":"ريف دمشق","CITY":"جديدة عرطوز","STREET":"شارع غرب البريد","BUILDING":"مقابل محلات المارديني","TEL":"116816377","PROVIDER_TYPE":"طبيب","SPECIALITY":"عينية"},
{"DIVISION":"طريق المطار وما حوله","NAME":"تمام سليمان سلوم","REGION_TERR":"ريف دمشق","CITY":"جرمانا","STREET":"ساحة الرئيس","BUILDING":"فوق حلويات نبيل نفيسة","TEL":"115681957","PROVIDER_TYPE":"طبيب","SPECIALITY":"عينية"},
{"DIVISION":"صحنايا وما حولها","NAME":"نوال سليمان شومان","REGION_TERR":"ريف دمشق","CITY":"صحنايا","STREET":"ساحة الازروني","BUILDING":"فوق شاورما الزين والمالكي","TEL":"116722727","PROVIDER_TYPE":"طبيب","SPECIALITY":"عينية"},
{"DIVISION":"شارع بغداد وما حوله","NAME":"فريد جرجس ديب","REGION_TERR":"دمشق","CITY":"شارع الثورة","STREET":"دخلة سوق ساروجة","BUILDING":"بناء عرفة -  ط1","TEL":"0112325658 ; 0112313717","PROVIDER_TYPE":"طبيب","SPECIALITY":"عينية"},
{"DIVISION":"المزة و كفر سوسة","NAME":"رنا محمد سعيد عمران","REGION_TERR":"دمشق","CITY":"المزة","STREET":"شيخ سعد","BUILDING":"شارع الرئيسي  - جانب صيدلية الحنفي","TEL":"116619580","PROVIDER_TYPE":"طبيب","SPECIALITY":"عينية"},
{"DIVISION":"الروضة وما حولها","NAME":"خالد سليمان الخالد","REGION_TERR":"دمشق","CITY":"الجسر الأبيض","STREET":"طلياني","BUILDING":"دخلة شارع الرئيس - مقابل محمصة الداية - بناء المنتنة - طابق اول","TEL":"113330484","PROVIDER_TYPE":"طبيب","SPECIALITY":"عينية"},
{"DIVISION":"دمر وما حولها","NAME":"محمد زياد صبحي عيون","REGION_TERR":"دمشق","CITY":"مشروع دمر","STREET":"جزيرة 7","BUILDING":"برج 8 - خلف سوق السابعة","TEL":"113124849","PROVIDER_TYPE":"طبيب","SPECIALITY":"عينية"},
{"DIVISION":"المجتهد وما حولها","NAME":"محمد رسلان محمد حسن العجق","REGION_TERR":"دمشق","CITY":"شارع خالد بن الوليد","STREET":"جانب كازية المجذوب","BUILDING":"","TEL":"112233330","PROVIDER_TYPE":"طبيب","SPECIALITY":"عينية"},
{"DIVISION":"الروضة وما حولها","NAME":"شهم علي الحوري","REGION_TERR":"دمشق","CITY":"الحمراء","STREET":"شارع الحمراء","BUILDING":"بناء رقم 21 - طابق ثالث","TEL":"113329329","PROVIDER_TYPE":"طبيب","SPECIALITY":"عينية"},
{"DIVISION":"الروضة وما حولها","NAME":"زياد انور باغ","REGION_TERR":"دمشق","CITY":"الجسر الأبيض","STREET":"جادة كرد علي","BUILDING":"","TEL":"113327017","PROVIDER_TYPE":"طبيب","SPECIALITY":"عينية"},
{"DIVISION":"المزة و كفر سوسة","NAME":"عامر عمر حلبي","REGION_TERR":"دمشق","CITY":"كفرسوسة","STREET":"حي البختيار","BUILDING":"مقابل صيدلية الاخلاص","TEL":"112246324","PROVIDER_TYPE":"طبيب","SPECIALITY":"عينية"},
{"DIVISION":"جديدة عرطوز وما حولها","NAME":"وائل فارس حنا","REGION_TERR":"ريف دمشق","CITY":"جديدة عرطوز","STREET":"شارع المستوصف","BUILDING":"بناء حنا , ط1","TEL":"116816161","PROVIDER_TYPE":"طبيب","SPECIALITY":"غدد صم وسكري"},
{"DIVISION":"طريق المطار وما حوله","NAME":"رنا هيثم اسطفان","REGION_TERR":"ريف دمشق","CITY":"جرمانا","STREET":"الشارع العام","BUILDING":"موقف الروضة , دخلة معهد الحكمة","TEL":"115635627","PROVIDER_TYPE":"طبيب","SPECIALITY":"غدد صم وسكري"},
{"DIVISION":"صحنايا وما حولها","NAME":"سوزان احمد بلول","REGION_TERR":"ريف دمشق","CITY":"صحنايا","STREET":"الباردة","BUILDING":"ضاحية 8آذار - المجمع التجاري","TEL":"937875645","PROVIDER_TYPE":"طبيب","SPECIALITY":"غدد صم وسكري"},
{"DIVISION":"صحنايا وما حولها","NAME":"ريم عطاالله سعد","REGION_TERR":"ريف دمشق","CITY":"صحنايا","STREET":"قرب بنك بيمو","BUILDING":"","TEL":"116733010","PROVIDER_TYPE":"طبيب","SPECIALITY":"غدد صم وسكري"},
{"DIVISION":"المزة و كفر سوسة","NAME":"هناء محمد الغانم","REGION_TERR":"دمشق","CITY":"المزة","STREET":"شيخ سعد","BUILDING":"بنايات 14 - بناء الصيرفي","TEL":"116610155","PROVIDER_TYPE":"طبيب","SPECIALITY":"غدد صم وسكري"},
{"DIVISION":"شارع بغداد وما حوله","NAME":"منى موريس دكر","REGION_TERR":"دمشق","CITY":"شارع بغداد","STREET":"مقابل موقف السادات","BUILDING":"","TEL":"114463713","PROVIDER_TYPE":"طبيب","SPECIALITY":"غدد صم وسكري"},
{"DIVISION":"التل وما حولها","NAME":"نذير محمد عبد الرحمن","REGION_TERR":"ريف دمشق","CITY":"التل","STREET":"طريق الوادي","BUILDING":"الطريق العام","TEL":"944501125","PROVIDER_TYPE":"طبيب","SPECIALITY":"قلبية"},
{"DIVISION":"طريق المطار وما حوله","NAME":"ابراهيم خليل ابو سعادة","REGION_TERR":"ريف دمشق","CITY":"جرمانا","STREET":"الروضة","BUILDING":"بناء المصري - جانب المختار أبو حسن","TEL":"115612481","PROVIDER_TYPE":"طبيب","SPECIALITY":"قلبية"},
{"DIVISION":"طريق المطار وما حوله","NAME":"سامر نجيب عقل","REGION_TERR":"ريف دمشق","CITY":"جرمانا","STREET":"قرب مشفى الراضي","BUILDING":"","TEL":"115645453","PROVIDER_TYPE":"طبيب","SPECIALITY":"قلبية"},
{"DIVISION":"المزة و كفر سوسة","NAME":"فاروق عبد الغني الجندلي","REGION_TERR":"دمشق","CITY":"المزة","STREET":"شيخ سعد","BUILDING":"بناء رقم 14- ط 1","TEL":"116665265","PROVIDER_TYPE":"طبيب","SPECIALITY":"قلبية"},
{"DIVISION":"المجتهد وما حولها","NAME":"غياث محمد الأغا","REGION_TERR":"دمشق","CITY":"باب مصلى","STREET":"العيادات الاستشاريه","BUILDING":"فوق فرن السلام","TEL":"988715071","PROVIDER_TYPE":"طبيب","SPECIALITY":"قلبية"},
{"DIVISION":"دمر وما حولها","NAME":"محمد فراس موفق زيدان","REGION_TERR":"دمشق","CITY":"مشروع دمر","STREET":"جزيرة 4 اسكان","BUILDING":"مقابل الحديقة - بناء 9","TEL":"113161282","PROVIDER_TYPE":"طبيب","SPECIALITY":"قلبية"},
{"DIVISION":"ركن الدين وما حولها","NAME":"بركات أحمد شاهين","REGION_TERR":"دمشق","CITY":"ركن الدين","STREET":"صلاح الدين","BUILDING":"سوق الصاغة - مقاومة - بجانب جامع صلاح الدين الايوبي","TEL":"112711348","PROVIDER_TYPE":"طبيب","SPECIALITY":"قلبية"},
{"DIVISION":"المجتهد وما حولها","NAME":"أيمن صالح الحموي","REGION_TERR":"دمشق","CITY":"ميدان","STREET":"كورنيش الميدان","BUILDING":"جانب صيدلية  الكوكبي","TEL":"118820200","PROVIDER_TYPE":"طبيب","SPECIALITY":"قلبية"},
{"DIVISION":"ركن الدين وما حولها","NAME":"ناصر محمد خير المغربي","REGION_TERR":"دمشق","CITY":"مزرعة","STREET":"ساحة الشهبندر","BUILDING":"شارع الملك العادل - جانب بنك سورية والمهجر - ضمن المركز الطبي الملكي","TEL":"114433285","PROVIDER_TYPE":"طبيب","SPECIALITY":"قلبية"},
{"DIVISION":"القصاع وما حوله","NAME":"فادي فايز التلي","REGION_TERR":"دمشق","CITY":"قصاع","STREET":"مقابل مشفى الفرنسي","BUILDING":"","TEL":"114451849","PROVIDER_TYPE":"طبيب","SPECIALITY":"قلبية"},
{"DIVISION":"القصاع وما حوله","NAME":"مروان جوزيف دياب","REGION_TERR":"دمشق","CITY":"قصاع","STREET":"شارع حلب","BUILDING":"مقابل موقف الفردوس","TEL":"114441957","PROVIDER_TYPE":"طبيب","SPECIALITY":"قلبية"},
{"DIVISION":"حي القصور وما حوله","NAME":"عماد محمد الكضيب العبودي","REGION_TERR":"ريف دمشق","CITY":"جرمانا","STREET":"موقف الروضة","BUILDING":"الشارع العام - مقابل فروموكا","TEL":"115661011","PROVIDER_TYPE":"طبيب","SPECIALITY":"كلية وارتفاع الضغط الشرياني"},
{"DIVISION":"ديماس وما حولها","NAME":"بشار محمد ديب","REGION_TERR":"ريف دمشق","CITY":"الديماس","STREET":"مساكن الديماس العسكرية","BUILDING":"الجزيرة 10","TEL":"113918833","PROVIDER_TYPE":"طبيب","SPECIALITY":"نسائية و توليد"},
{"DIVISION":"جديدة عرطوز وما حولها","NAME":"رزان فريد لوقا","REGION_TERR":"ريف دمشق","CITY":"جديدة عرطوز","STREET":"شارع البلدية","BUILDING":"خلف مخفر الشرطة بناء البلدية - ط1","TEL":"116808928","PROVIDER_TYPE":"طبيب","SPECIALITY":"نسائية و توليد"},
{"DIVISION":"صحنايا وما حولها","NAME":"هيفاء جميل أبو طبيخ","REGION_TERR":"ريف دمشق","CITY":"صحنايا","STREET":"ساحة الأزروني","BUILDING":"جانب صيدلية عبير حسون","TEL":"116711064","PROVIDER_TYPE":"طبيب","SPECIALITY":"نسائية و توليد"},
{"DIVISION":"المزة و كفر سوسة","NAME":"وليد نايف حمود","REGION_TERR":"دمشق","CITY":"المزة","STREET":"مزة 86","BUILDING":"فوق صيدلية معين يوسف","TEL":"116667660","PROVIDER_TYPE":"طبيب","SPECIALITY":"نسائية و توليد"},
{"DIVISION":"دمر وما حولها","NAME":"يسرى أحمد عثمان","REGION_TERR":"دمشق","CITY":"مشروع دمر","STREET":"حي الورود","BUILDING":"مقابل صيدلية رشا اسماعيل","TEL":"113140891","PROVIDER_TYPE":"طبيب","SPECIALITY":"نسائية و توليد"},
{"DIVISION":"ركن الدين وما حولها","NAME":"سهام عوض الديري","REGION_TERR":"دمشق","CITY":"مزرعة","STREET":"ساحة الشهبندر","BUILDING":"جانب صيدلية السبع بحرات","TEL":"114442989","PROVIDER_TYPE":"طبيب","SPECIALITY":"نسائية و توليد"},
{"DIVISION":"المجتهد وما حولها","NAME":"مؤمنة معروف سالمة","REGION_TERR":"دمشق","CITY":"باب مصلى","STREET":"جانب مشفى شيخ الارض","BUILDING":"","TEL":"118880602","PROVIDER_TYPE":"طبيب","SPECIALITY":"نسائية و توليد"},
{"DIVISION":"شارع بغداد وما حوله","NAME":"سمر يحيى عيسى","REGION_TERR":"دمشق","CITY":"شارع بغداد","STREET":"أزبكية","BUILDING":"مقابل شعبة التجنيد","TEL":"114443968","PROVIDER_TYPE":"طبيب","SPECIALITY":"نسائية و توليد"},
{"DIVISION":"ركن الدين وما حولها","NAME":"بسام نيازي الياس","REGION_TERR":"دمشق","CITY":"برزة","STREET":"مساكن برزة","BUILDING":"طلعة مشفى حاميش جانب جامع الخنساء - بناء رقم 36","TEL":"115118931","PROVIDER_TYPE":"طبيب","SPECIALITY":"نسائية و توليد"},
{"DIVISION":"المزة و كفر سوسة","NAME":"خليل ابراهيم خليل","REGION_TERR":"دمشق","CITY":"المزة","STREET":"خلف ملعب الجلاء","BUILDING":"مقابل مول السندباد - جانب صيدلية السري","TEL":"116625736","PROVIDER_TYPE":"طبيب","SPECIALITY":"نسائية و توليد"},
{"DIVISION":"الروضة وما حولها","NAME":"غيداء عبد الاله يوسف","REGION_TERR":"دمشق","CITY":"الجسر الأبيض","STREET":"شارع زهير ابن ابي سلمى","BUILDING":"شارع النهر - جانب صيدلية الرزاز","TEL":"113315330","PROVIDER_TYPE":"طبيب","SPECIALITY":"نسائية و توليد"},
{"DIVISION":"ساحة المحافظة وما حولها","NAME":"هيام علي سلمان","REGION_TERR":"دمشق","CITY":"شارع 29 ايار","STREET":"دخلة مشفى الشرق","BUILDING":"","TEL":"112321399","PROVIDER_TYPE":"طبيب","SPECIALITY":"نسائية و توليد"},
{"DIVISION":"القصاع وما حوله","NAME":"راكان ادوار نجمة","REGION_TERR":"دمشق","CITY":"باب توما","STREET":"خلف مخفر الشرطة","BUILDING":"","TEL":"115440005","PROVIDER_TYPE":"طبيب","SPECIALITY":"نسائية و توليد"},
{"DIVISION":"طريق المطار وما حوله","NAME":"حليم عطية خليل","REGION_TERR":"ريف دمشق","CITY":"جرمانا","STREET":"الشارع الرئيسي","BUILDING":"موقف الروضة","TEL":"115635627","PROVIDER_TYPE":"طبيب","SPECIALITY":"هضمية"},
{"DIVISION":"صحنايا وما حولها","NAME":"مروان سليم شكور","REGION_TERR":"ريف دمشق","CITY":"صحنايا","STREET":"مقابل مركز هشام الطبي","BUILDING":"مقابل صيدلية تنظيم صحنايا","TEL":"116735328","PROVIDER_TYPE":"طبيب","SPECIALITY":"هضمية"},
{"DIVISION":"دمر وما حولها","NAME":"سعد منذر فلوح","REGION_TERR":"دمشق","CITY":"دمر","STREET":"مدخل مشروع دمر","BUILDING":"طلعة جبل الرز","TEL":"113114413","PROVIDER_TYPE":"طبيب","SPECIALITY":"هضمية"},
{"DIVISION":"ساحة المحافظة وما حولها","NAME":"نمير أحمد دعبول","REGION_TERR":"دمشق","CITY":"شارع 29 ايار","STREET":"خلف مشفى الشرق","BUILDING":"","TEL":"112323525","PROVIDER_TYPE":"طبيب","SPECIALITY":"هضمية"},
{"DIVISION":"المزة و كفر سوسة","NAME":"وفيق ابراهيم ديوب","REGION_TERR":"دمشق","CITY":"المزة","STREET":"شيخ سعد","BUILDING":"مقابل صيدلية الحنفي","TEL":"116612674","PROVIDER_TYPE":"طبيب","SPECIALITY":"هضمية"},
{"DIVISION":"ساحة المحافظة وما حولها","NAME":"ناصر اصف بركات","REGION_TERR":"دمشق","CITY":"بحصة","STREET":"مقابل فندق فينيسيا","BUILDING":"بجانب المركز الثقافي الفرنسي - مقابل بناء دمشق الدولي","TEL":"112314830","PROVIDER_TYPE":"طبيب","SPECIALITY":"هضمية"},
{"DIVISION":"الروضة وما حولها","NAME":"بشر موفق دعبول","REGION_TERR":"دمشق","CITY":"روضة","STREET":"شارع مطعم اللوتس","BUILDING":"بناء الحلبي","TEL":"113332360","PROVIDER_TYPE":"طبيب","SPECIALITY":"هضمية"},
{"DIVISION":"طريق المطار وما حوله","NAME":"اسامة موسى ابو نصر","REGION_TERR":"ريف دمشق","CITY":"جرمانا","STREET":"الشارع العام","BUILDING":"موقف البيدر","TEL":"115619132","PROVIDER_TYPE":"طبيب","SPECIALITY":"نسائية و توليد"},
{"DIVISION":"طريق المطار وما حوله","NAME":"غزل محمد وليد حلاق","REGION_TERR":"ريف دمشق","CITY":"جرمانا","STREET":"الشارع العام","BUILDING":"مقابل شارع الفرن - جانب عيادة د. احسان عز الدين","TEL":"115641234","PROVIDER_TYPE":"طبيب","SPECIALITY":"نسائية و توليد"},
{"DIVISION":"الروضة وما حولها","NAME":"مركز عيادة الشام الطبي","REGION_TERR":"دمشق","CITY":"ابو رمانة","STREET":"شارع الترمذي","BUILDING":"بناء رقم 5","TEL":"113062","PROVIDER_TYPE":"عيادة","SPECIALITY":""},
{"DIVISION":"الروضة وما حولها","NAME":"مركز الجسر التخصصي","REGION_TERR":"دمشق","CITY":"الجسر الأبيض","STREET":"شارع نسيب البكري","BUILDING":"بجانب صيدلية الروضة - بناء شحرور","TEL":"0113317166 ; 0113325707","PROVIDER_TYPE":"عيادة","SPECIALITY":""},
{"DIVISION":"المزة و كفر سوسة","NAME":"مركز الوفائي لطب العيون","REGION_TERR":"دمشق","CITY":"المزة","STREET":"شيخ سعد","BUILDING":"طلعة المشفى العسكري","TEL":"116617212","PROVIDER_TYPE":"عيادة","SPECIALITY":""},
{"DIVISION":"المزة و كفر سوسة","NAME":"المركز الحضاري الطبي","REGION_TERR":"دمشق","CITY":"المزة","STREET":"فيلات غربية","BUILDING":"مقابل جامع الهدى","TEL":"0116122831 ; 0116122830 ; 0117065","PROVIDER_TYPE":"عيادة","SPECIALITY":""},
{"DIVISION":"ساحة المحافظة وما حولها","NAME":"مركز عيادة ويكير التخصصية","REGION_TERR":"دمشق","CITY":"ساحة السبع بحرات","STREET":"مقابل البنك المركزي","BUILDING":"مقابل الصيدلية المركزية","TEL":"114470164","PROVIDER_TYPE":"عيادة","SPECIALITY":""},
{"DIVISION":"دمر وما حولها","NAME":"مركز دمر الطبي","REGION_TERR":"دمشق","CITY":"مشروع دمر","STREET":"جزيرة 10","BUILDING":"الحديقة اليابانية","TEL":"119790","PROVIDER_TYPE":"عيادة","SPECIALITY":""},
{"DIVISION":"الروضة وما حولها","NAME":"مركز لاموندا الطبي","REGION_TERR":"دمشق","CITY":"مهاجرين","STREET":"العفيف","BUILDING":"شارع هارون الرشيد","TEL":"113345383","PROVIDER_TYPE":"عيادة","SPECIALITY":""},
{"DIVISION":"قدسيا وما حولها","NAME":"مركز ضاحية قدسيا الطبي","REGION_TERR":"ريف دمشق","CITY":"ضاحية قدسيا","STREET":"الجزيرة إي 2","BUILDING":"مقابل سوق ايبلا - جانب النادي الرياضي","TEL":"0113450460 ; 0113453417","PROVIDER_TYPE":"عيادة","SPECIALITY":""},
{"DIVISION":"المزة و كفر سوسة","NAME":"المركز التخصصي للعناية الطبية","REGION_TERR":"دمشق","CITY":"المزة","STREET":"مزة جبل","BUILDING":"شارع عمر الخيام - مقابل صيدلية دمشق الجديدة","TEL":"0116635588 ; 0114009","PROVIDER_TYPE":"عيادة","SPECIALITY":""},
{"DIVISION":"التل وما حولها","NAME":"مخبر جهاد أحمد سكر للتحاليل الطبية","REGION_TERR":"ريف دمشق","CITY":"التل","STREET":"شارع النصر","BUILDING":"مقابل المالية","TEL":"115947100","PROVIDER_TYPE":"مختبر","SPECIALITY":""},
{"DIVISION":"الروضة وما حولها","NAME":"مخبر الجباصيني للتحاليل - أحمد الجباصيني","REGION_TERR":"دمشق","CITY":"الجسر الأبيض","STREET":"ساحة الجسر الأبيض","BUILDING":"","TEL":"0113317485 ; 0113310237","PROVIDER_TYPE":"مختبر","SPECIALITY":""},
{"DIVISION":"الروضة وما حولها","NAME":"مخبر عمر حبش للتحاليل الطبية","REGION_TERR":"دمشق","CITY":"الجسر الأبيض","STREET":"طلياني","BUILDING":"مقابل د. هزار جيكو","TEL":"113348664","PROVIDER_TYPE":"مختبر","SPECIALITY":""},
{"DIVISION":"الروضة وما حولها","NAME":"مخبر العناية الحديث للتحاليل - غيث عناية","REGION_TERR":"دمشق","CITY":"الجسر الأبيض","STREET":"طلياني","BUILDING":"مقابل حلويات الرئيس","TEL":"0113324532 ; 0113323222","PROVIDER_TYPE":"مختبر","SPECIALITY":""},
{"DIVISION":"الزبداني و بلودان","NAME":"مخبر تريز فرح للتحاليل الطبية","REGION_TERR":"ريف دمشق","CITY":"الزبداني","STREET":"المحطة","BUILDING":"شارع مشفى الحكمة","TEL":"933490224","PROVIDER_TYPE":"مختبر","SPECIALITY":""},
{"DIVISION":"النبك وما حولها","NAME":"مخبر عمر دلة للتحاليل الطبية","REGION_TERR":"ريف دمشق","CITY":"القطيفة","STREET":"شارع الرئيس حافظ الاسد","BUILDING":"جانب المحكمة","TEL":"117751327","PROVIDER_TYPE":"مختبر","SPECIALITY":""},
{"DIVISION":"صحنايا وما حولها","NAME":"مخبر الحسامي للتحاليل - عبدالله الحسامي","REGION_TERR":"ريف دمشق","CITY":"الكسوة","STREET":"كسوة بلد","BUILDING":"شارع المدارس","TEL":"116912391","PROVIDER_TYPE":"مختبر","SPECIALITY":""},
{"DIVISION":"المزة و كفر سوسة","NAME":"مخبر ألفا للتحاليل الطبية - بسام زيود","REGION_TERR":"دمشق","CITY":"المزة","STREET":"شيخ سعد","BUILDING":"موقف 601","TEL":"116617575","PROVIDER_TYPE":"مختبر","SPECIALITY":""},
{"DIVISION":"المزة و كفر سوسة","NAME":"مخبر المرادي للتحاليل - عصام المرادي","REGION_TERR":"دمشق","CITY":"المزة","STREET":"فيلات غربية","BUILDING":"سيتي مول -  طابق 1","TEL":"116663054","PROVIDER_TYPE":"مختبر","SPECIALITY":""},
{"DIVISION":"المزة و كفر سوسة","NAME":"مخبر الأسدي للتحاليل الطبية- لؤي اسدي","REGION_TERR":"دمشق","CITY":"المزة","STREET":"شيخ سعد","BUILDING":"أول طلعة المشفى العسكري 601","TEL":"116621178","PROVIDER_TYPE":"مختبر","SPECIALITY":""},
{"DIVISION":"صحنايا وما حولها","NAME":"مخبر الوليد للتحاليل الطبية","REGION_TERR":"ريف دمشق","CITY":"أشرفية صحنايا","STREET":"موقف الخزان","BUILDING":"","TEL":"116722885","PROVIDER_TYPE":"مختبر","SPECIALITY":""},
{"DIVISION":"جديدة عرطوز وما حولها","NAME":"مخبر هبة شيخ عثمان للتحاليل الطبية","REGION_TERR":"ريف دمشق","CITY":"جديدة عرطوز","STREET":"امتداد شارع المخفر","BUILDING":"مقابل مقسم الهاتف","TEL":"116812348","PROVIDER_TYPE":"مختبر","SPECIALITY":""},
{"DIVISION":"جديدة عرطوز وما حولها","NAME":"مخبر البراء للتحاليل - فاتن حنين اللحام","REGION_TERR":"ريف دمشق","CITY":"جديدة عرطوز","STREET":"الشارع الرئيسي","BUILDING":"","TEL":"116815163","PROVIDER_TYPE":"مختبر","SPECIALITY":""},
{"DIVISION":"طريق المطار وما حوله","NAME":"مخبر صياح ابراهيم للتحاليل الطبية","REGION_TERR":"ريف دمشق","CITY":"جرمانا","STREET":"ساحة الرئيس","BUILDING":"جانب حلويات نفيسة، قبو بناء بنك الاردن","TEL":"115680111","PROVIDER_TYPE":"مختبر","SPECIALITY":""},
{"DIVISION":"طريق المطار وما حوله","NAME":"مخبر غانم للتحاليل الطبية - كمال غانم","REGION_TERR":"ريف دمشق","CITY":"جرمانا","STREET":"شارع السبيل","BUILDING":"جانب صيدلية جرمانا","TEL":"115616085","PROVIDER_TYPE":"مختبر","SPECIALITY":""},
{"DIVISION":"باب شرقي وما حولها","NAME":"مخبر خليل البديوي للتحاليل الطبية","REGION_TERR":"دمشق","CITY":"دويلعة","STREET":"مفرق أبو عطاف","BUILDING":"جانب صيدلية المجد","TEL":"114721068","PROVIDER_TYPE":"مختبر","SPECIALITY":""},
{"DIVISION":"الروضة وما حولها","NAME":"مخبر سبح للتحاليل الطبية - هدى سبح","REGION_TERR":"دمشق","CITY":"روضة","STREET":"حديقة السبكي","BUILDING":"مقابل المحاربين القدماء","TEL":"113321643","PROVIDER_TYPE":"مختبر","SPECIALITY":""},
{"DIVISION":"ساحة المحافظة وما حولها","NAME":"مخبر الخواجكية للتحاليل - سمير خواجكية","REGION_TERR":"دمشق","CITY":"شارع 29 ايار","STREET":"خلف سينما السفراء","BUILDING":"","TEL":"112311813","PROVIDER_TYPE":"مختبر","SPECIALITY":""},
{"DIVISION":"صحنايا وما حولها","NAME":"مخبر صارجي للتحاليل الطبية - ناجي موريس","REGION_TERR":"ريف دمشق","CITY":"صحنايا","STREET":"ساحة الكنيسة","BUILDING":"","TEL":"116714958","PROVIDER_TYPE":"مختبر","SPECIALITY":""},
{"DIVISION":"صحنايا وما حولها","NAME":"مخبر سناء زين الدين للتحاليل الطبية","REGION_TERR":"ريف دمشق","CITY":"صحنايا","STREET":"مقابل بنك بيمو","BUILDING":"","TEL":"116733473","PROVIDER_TYPE":"مختبر","SPECIALITY":""},
{"DIVISION":"التل وما حولها","NAME":"مخبر زكريا شمس الدين للتحاليل الطبية","REGION_TERR":"ريف دمشق","CITY":"عين منين","STREET":"مقابل وكالة LG","BUILDING":"طابق ارضي","TEL":"115844555","PROVIDER_TYPE":"مختبر","SPECIALITY":""},
{"DIVISION":"ساحة المحافظة وما حولها","NAME":"مخبر حبش - محمد سعيد حبش","REGION_TERR":"دمشق","CITY":"فكتوريا","STREET":"مجمع فيكتوريا التجاري","BUILDING":"فوق المصرف التجاري السوري رقم 9","TEL":"112238766","PROVIDER_TYPE":"مختبر","SPECIALITY":""},
{"DIVISION":"القصاع وما حوله","NAME":"مخبر القصاع للتحاليل الطبية - شبل الخوري","REGION_TERR":"دمشق","CITY":"قصاع","STREET":"مقابل مشفى الزهراوي","BUILDING":"","TEL":"114462943","PROVIDER_TYPE":"مختبر","SPECIALITY":""},
{"DIVISION":"القصاع وما حوله","NAME":"مخبر عبسي - رانيا عبسي","REGION_TERR":"دمشق","CITY":"قصاع","STREET":"شارع حلب","BUILDING":"جانب حلويات الوسام -  بناء الحفار","TEL":"114451539","PROVIDER_TYPE":"مختبر","SPECIALITY":""},
{"DIVISION":"القصاع وما حوله","NAME":"مخبر الشاغوري للتحاليل - رجاء شاغوري","REGION_TERR":"دمشق","CITY":"قصور","STREET":"شارع كعب بن زهير","BUILDING":"","TEL":"114415164","PROVIDER_TYPE":"مختبر","SPECIALITY":""},
{"DIVISION":"المجتهد وما حولها","NAME":"مخبر النجيب للتحاليل الطبية - نجيب احمد","REGION_TERR":"دمشق","CITY":"مجتهد","STREET":"مقابل مشفى المجتهد","BUILDING":"","TEL":"112131092","PROVIDER_TYPE":"مختبر","SPECIALITY":""},
{"DIVISION":"المجتهد وما حولها","NAME":"مخبر مطيط الطبي - هنادي مطيط","REGION_TERR":"دمشق","CITY":"مجتهد","STREET":"الموازيني","BUILDING":"جانب مشفى المجتهد","TEL":"112246547","PROVIDER_TYPE":"مختبر","SPECIALITY":""},
{"DIVISION":"عدرا وما حولها","NAME":"مخبر شاهين للتحاليل الطبية - جورج شاهين","REGION_TERR":"ريف دمشق","CITY":"مخيم الوافدين","STREET":"الشارع الرئيسي","BUILDING":"جانب موقف السرفيس","TEL":"115772767","PROVIDER_TYPE":"مختبر","SPECIALITY":""},
{"DIVISION":"دمر وما حولها","NAME":"مخبر المستقبل للتحاليل - سوسن بوري","REGION_TERR":"دمشق","CITY":"مشروع دمر","STREET":"جزيرة 10","BUILDING":"برج 10","TEL":"113117416","PROVIDER_TYPE":"مختبر","SPECIALITY":""},
{"DIVISION":"المجتهد وما حولها","NAME":"مخبر الشياح - سلمى ابراهيم الشياح","REGION_TERR":"دمشق","CITY":"ميدان","STREET":"الثريا","BUILDING":"مقابل كراجات نهر عيشة","TEL":"118833929","PROVIDER_TYPE":"مختبر","SPECIALITY":""},
{"DIVISION":"المزة و كفر سوسة","NAME":"مخبر هيام اليونس للتحاليل الطبية","REGION_TERR":"دمشق","CITY":"كفرسوسة","STREET":"مقابل جريدة الثورة","BUILDING":"","TEL":"0112258006 ; 0112257567","PROVIDER_TYPE":"مختبر","SPECIALITY":""},
{"DIVISION":"طريق المطار وما حوله","NAME":"مخبر القاموع للتحاليل الطبية","REGION_TERR":"ريف دمشق","CITY":"جرمانا","STREET":"الشارع العام","BUILDING":"مقابل مفرق البلدية القديمة","TEL":"115627473","PROVIDER_TYPE":"مختبر","SPECIALITY":""},
{"DIVISION":"الروضة وما حولها","NAME":"مركز المرنان المفتوح","REGION_TERR":"دمشق","CITY":"الجسر الأبيض","STREET":"طلياني","BUILDING":"خلف مشفى الطلياني","TEL":"113347789","PROVIDER_TYPE":"مركز أشعة","SPECIALITY":""},
{"DIVISION":"المجتهد وما حولها","NAME":"مركز دار الأشعة - عبد الفتاح الحلبي","REGION_TERR":"دمشق","CITY":"شارع خالد بن الوليد","STREET":"الشارع الرئيسي","BUILDING":"بناء النجار","TEL":"112224736","PROVIDER_TYPE":"مركز أشعة","SPECIALITY":""},
{"DIVISION":"باب شرقي وما حولها","NAME":"مركز شحادة حنون للتصوير الشعاعي","REGION_TERR":"دمشق","CITY":"دويلعة","STREET":"أول مفرق الدويلعة","BUILDING":"","TEL":"0114731992 ; 0114716824","PROVIDER_TYPE":"مركز أشعة","SPECIALITY":""},
{"DIVISION":"طريق المطار وما حوله","NAME":"مركز جرمانا الشعاعي الحديث","REGION_TERR":"ريف دمشق","CITY":"جرمانا","STREET":"موقف الروضة","BUILDING":"مدخل الجمعية الخيرية - ضمن مركز الامير الطبي","TEL":"115630882","PROVIDER_TYPE":"مركز أشعة","SPECIALITY":""},
{"DIVISION":"شارع بغداد وما حوله","NAME":"مركز عيسى صهيوني للتصوير الشعاعي","REGION_TERR":"دمشق","CITY":"شارع بغداد","STREET":"بإتجاه ساحة التحرير","BUILDING":"","TEL":"114432430","PROVIDER_TYPE":"مركز أشعة","SPECIALITY":""},
{"DIVISION":"صحنايا وما حولها","NAME":"مركز النور للأشعة - سامر عباس","REGION_TERR":"ريف دمشق","CITY":"صحنايا","STREET":"شارع جمال عبد الناصر","BUILDING":"جانب موقف خزان المياه","TEL":"116719962","PROVIDER_TYPE":"مركز أشعة","SPECIALITY":""},
{"DIVISION":"طريق المطار وما حوله","NAME":"مركز التصوير الشعاعي - نديم حروق","REGION_TERR":"ريف دمشق","CITY":"جرمانا","STREET":"البلدية القديمة","BUILDING":"ثاني دخلة عاليمين - ثاني بناء عاليمين - بالقبو","TEL":"115635393","PROVIDER_TYPE":"مركز أشعة","SPECIALITY":""},
{"DIVISION":"المزة و كفر سوسة","NAME":"مركز محمد كريم للاشعة","REGION_TERR":"دمشق","CITY":"المزة","STREET":"شيخ سعد","BUILDING":"مقابل المدرسة الفرنسية","TEL":"116641144","PROVIDER_TYPE":"مركز أشعة","SPECIALITY":""},
{"DIVISION":"الروضة وما حولها","NAME":"مركز سيغما للرنين المغنطيسي","REGION_TERR":"دمشق","CITY":"الجسر الأبيض","STREET":"دوار وزارة  التربية","BUILDING":"جانب فوج الاطفاء","TEL":"113334535","PROVIDER_TYPE":"مركز أشعة","SPECIALITY":""},
{"DIVISION":"المجتهد وما حولها","NAME":"مركز سيريا سكان للتصوير الشعاعي","REGION_TERR":"دمشق","CITY":"مجتهد","STREET":"مقابل مشفى المجتهد","BUILDING":"","TEL":"0118833883 ; 0118822882","PROVIDER_TYPE":"مركز أشعة","SPECIALITY":""},
{"DIVISION":"ركن الدين وما حولها","NAME":"مركز الشنان الشعاعي","REGION_TERR":"دمشق","CITY":"مزرعة","STREET":"ساحة الشهبندر","BUILDING":"مقابل وزارة التربية","TEL":"114417567","PROVIDER_TYPE":"مركز أشعة","SPECIALITY":""},
{"DIVISION":"الروضة وما حولها","NAME":"مشفى الروضة السوري التخصصي","REGION_TERR":"دمشق","CITY":"روضة","STREET":"دخلة المركز الثقافي العربي","BUILDING":"","TEL":"0113338392 ; 0113330589","PROVIDER_TYPE":"مشفى","SPECIALITY":""},
{"DIVISION":"القصاع وما حوله","NAME":"مشفى القديس لويس - الفرنسي","REGION_TERR":"دمشق","CITY":"قصاع","STREET":"مقابل كنيسة كيرلس","BUILDING":"","TEL":"0114450705 ; 0114440460 ; 0114438460 ; 0114440461","PROVIDER_TYPE":"مشفى","SPECIALITY":""},
{"DIVISION":"النبك وما حولها","NAME":"مشفى المدينة الطبية الجامعية التعليمية الخاصة","REGION_TERR":"ريف دمشق","CITY":"دير عطية","STREET":"الشارع العام","BUILDING":"ضمن حرم جامعة القلمون","TEL":"01178350000 ; 0117875002","PROVIDER_TYPE":"مشفى","SPECIALITY":""},
{"DIVISION":"القصاع وما حوله","NAME":"مشفى المدينة - دمشق","REGION_TERR":"دمشق","CITY":"تجارة","STREET":"شرقي كورنيش التجارة","BUILDING":"مواجه حديقة الروس","TEL":"0114446200 ; 0114445044 ; 0114447544 ; 0119560","PROVIDER_TYPE":"مشفى","SPECIALITY":""},
{"DIVISION":"القصاع وما حوله","NAME":"مشفى دار الشفاء الجديد","REGION_TERR":"دمشق","CITY":"عدوي","STREET":"جانب وزارة النفط","BUILDING":"","TEL":"114465340","PROVIDER_TYPE":"مشفى","SPECIALITY":""},
{"DIVISION":"الروضة وما حولها","NAME":"مشفى العناية الخاص - د. شامي","REGION_TERR":"دمشق","CITY":"مالكي","STREET":"البارك الغربي","BUILDING":"مقابل حديقة تشرين","TEL":"113734926","PROVIDER_TYPE":"مشفى","SPECIALITY":""},
{"DIVISION":"المجتهد وما حولها","NAME":"مشفى الفيحاء - دمشق","REGION_TERR":"دمشق","CITY":"ميدان","STREET":"خلف جامع زين العابدين","BUILDING":"","TEL":"0119593 ; 0118819593","PROVIDER_TYPE":"مشفى","SPECIALITY":""},
{"DIVISION":"صحنايا وما حولها","NAME":"مشفى السلام التخصصي صحنايا","REGION_TERR":"ريف دمشق","CITY":"صحنايا","STREET":"أول أوتوستراد درعا","BUILDING":"بعد التاون سنتر","TEL":"116857018","PROVIDER_TYPE":"مشفى","SPECIALITY":""},
{"DIVISION":"المزة و كفر سوسة","NAME":"مشفى الأندلس - دمشق","REGION_TERR":"دمشق","CITY":"كفرسوسة","STREET":"تنظيم","BUILDING":"مقسم 84","TEL":"0119974 ; 0112146070 ; 0112146071 ; 0112146088 ; 0112146099","PROVIDER_TYPE":"مشفى","SPECIALITY":""},
{"DIVISION":"المزة و كفر سوسة","NAME":"مشفى الرازي - دمشق","REGION_TERR":"دمشق","CITY":"المزة","STREET":"اتوستراد المزة","BUILDING":"مقابل شركة ام تي ان","TEL":"0116118445 ; 0116119569 ; 0119518","PROVIDER_TYPE":"مشفى","SPECIALITY":""},
{"DIVISION":"المزة و كفر سوسة","NAME":"مركز لؤي الحسيني للعلاج الفيزيائي","REGION_TERR":"دمشق","CITY":"المزة","STREET":"اتوستراد المزة","BUILDING":"جانب فندق الجلاء","TEL":"116664263","PROVIDER_TYPE":"معالجة فيزيائية","SPECIALITY":""},
{"DIVISION":"الروضة وما حولها","NAME":"مركز هشام طيان للعلاج الفيزيائي","REGION_TERR":"دمشق","CITY":"روضة","STREET":"نوري باشا","BUILDING":"جانب اتحاد شبيبة الثورة","TEL":"113334828","PROVIDER_TYPE":"معالجة فيزيائية","SPECIALITY":""},
{"DIVISION":"ساحة المحافظة وما حولها","NAME":"مركز بشرى قفورة للعلاج الفيزيائي","REGION_TERR":"دمشق","CITY":"شارع 29 ايار","STREET":"بناء البيطار","BUILDING":"بجانب المركز الثقافي الروسي","TEL":"0112332338 ; 0112332337","PROVIDER_TYPE":"معالجة فيزيائية","SPECIALITY":""},
{"DIVISION":"شارع بغداد وما حوله","NAME":"مركز جمانة سعد ومحمد حمصي","REGION_TERR":"دمشق","CITY":"شارع بغداد","STREET":"عين الكرش","BUILDING":"مقابل صيدلية الورد","TEL":"112315885","PROVIDER_TYPE":"معالجة فيزيائية","SPECIALITY":""},
{"DIVISION":"القصاع وما حوله","NAME":"مركز بشار خير للعلاج الفيزيائي","REGION_TERR":"دمشق","CITY":"قصاع","STREET":"شارع حلب","BUILDING":"بناء رقم 9","TEL":"114444824","PROVIDER_TYPE":"معالجة فيزيائية","SPECIALITY":""},
{"DIVISION":"طريق المطار وما حوله","NAME":"المركز الرياضي الصحي للعلاج الفيزيائي","REGION_TERR":"ريف دمشق","CITY":"جرمانا","STREET":"ساحة السيد الرئيس","BUILDING":"جانب حلويات نبيل نفيسة , جانب مخبر الدكتور صياح ابراهيم","TEL":"115637333","PROVIDER_TYPE":"معالجة فيزيائية","SPECIALITY":""}];